ONEWEB-0555             
1 56057U 23043M   25076.61752793  .00000696  00000+0  17877-2 0  9997
2 56057  87.9086 319.7827 0001208  96.5662 263.5607 13.16589671 99795
ONEWEB-0557             
1 56058U 23043N   25076.63176221 -.00000343  00000+0 -93068-3 0  9994
2 56058  87.9084 319.8040 0001482 117.2021 242.9261 13.16592916 98888
ONEWEB-0558             
1 56059U 23043P   25076.76620880  .00000041  00000+0  68180-4 0  9995
2 56059  87.9334 334.9814 0002020  66.4787 293.6559 13.21827768 98859
ONEWEB-0559             
1 56060U 23043Q   25076.45237559  .00000099  00000+0  20818-3 0  9998
2 56060  87.9334 335.0374 0002238  78.4449 281.6936 13.21827429 97919
ONEWEB-0566             
1 56061U 23043R   25076.44606912 -.00000235  00000+0 -60024-3 0  9998
2 56061  87.9332 335.0380 0002250  68.8901 291.2474 13.21825640 97899
ONEWEB-0568             
1 56062U 23043S   25076.42119045  .00000076  00000+0  16606-3 0  9991
2 56062  87.9084 319.8113 0001414  84.1698 275.9594 13.16595926 98879
ONEWEB-0574             
1 56063U 23043T   25076.21268292  .00000116  00000+0  24961-3 0  9996
2 56063  87.9332 335.0741 0001629  76.3011 283.8304 13.21827421 97907
ONEWEB-0575             
1 56064U 23043U   25076.18687302  .00000104  00000+0  23811-3 0  9990
2 56064  87.9086 319.8702 0001649  98.5093 261.6225 13.16596224 98836
ONEWEB-0576             
1 56065U 23043V   25076.62386009 -.00000012  00000+0 -66048-4 0  9990
2 56065  87.9086 319.7741 0001526  86.2714 273.8591 13.16593430 98889
ONEWEB-0577             
1 56066U 23043W   25076.63019174 -.00000051  00000+0 -16714-3 0  9995
2 56066  87.9085 319.7737 0001785 104.6611 255.4718 13.16595991 98917
ONEWEB-0578             
1 56067U 23043X   25076.72994306  .00000084  00000+0  17287-3 0  9995
2 56067  87.9333 334.9791 0001643  81.2366 278.8954 13.21826589 98842
ONEWEB-0579             
1 56068U 23043Y   25076.41768494  .00000140  00000+0  30737-3 0  9997
2 56068  87.9333 335.0297 0002132  78.7856 281.3517 13.21828941 97909
ONEWEB-0581             
1 56069U 23043Z   25076.71251659  .00000027  00000+0  36001-4 0  9996
2 56069  87.9086 319.7879 0002003  93.1175 267.0185 13.16596648 99805
ONEWEB-0609             
1 56070U 23043AA  25076.45949777  .00000064  00000+0  13692-3 0  9995
2 56070  87.9139 350.2030 0001805  74.7274 285.4056 13.15550745 96387
ONEWEB-0613             
1 56071U 23043AB  25076.30262216 -.00000306  00000+0 -84803-3 0  9999
2 56071  87.9141 350.2411 0002088  75.3614 284.7747 13.15548386 96368
ONEWEB-0630             
1 56072U 23043AC  25076.75421647  .00000202  00000+0  50350-3 0  9997
2 56072  87.9137 350.1328 0002042  72.1536 287.9817 13.15551315 97324
ONEWEB-0632             
1 56073U 23043AD  25076.44523749  .00000160  00000+0  39164-3 0  9993
2 56073  87.9138 350.2135 0001973  84.2823 275.8532 13.15546622 96377
ONEWEB-0633             
1 56074U 23043AE  25076.28678603  .00000178  00000+0  43876-3 0  9990
2 56074  87.9133 350.2162 0002068  66.7393 293.3955 13.15550960 96336
ONEWEB-0634             
1 56075U 23043AF  25076.50069578  .00000096  00000+0  22218-3 0  9997
2 56075  87.9139 350.2028 0001621  67.3546 292.7756 13.15547560 96351
ONEWEB-0635             
1 56076U 23043AG  25076.49594108  .00000024  00000+0  29001-4 0  9997
2 56076  87.9110 350.2147 0001968  88.2041 271.9314 13.15550368 96381
ONEWEB-0636             
1 56077U 23043AH  25076.18379000  .00000049  00000+0  97252-4 0  9996
2 56077  87.9119 350.2779 0001967  86.5391 273.5965 13.15547487 96322
ONEWEB-0637             
1 56078U 23043AJ  25076.25352173 -.00000043  00000+0 -14696-3 0  9993
2 56078  87.9140 350.2509 0001640  87.8231 272.3087 13.15548587 96350
ONEWEB-0647             
1 56079U 23043AK  25076.47693029 -.00000067  00000+0 -21190-3 0  9999
2 56079  87.9138 350.2185 0002024  80.7177 279.4182 13.15547503 96379
ONEWEB-0651             
1 56080U 23043AL  25076.70033556 -.00000137  00000+0 -39686-3 0  9997
2 56080  87.9141 350.1595 0001769  89.1792 270.9541 13.15550536 96409
ONEWEB-0718             
1 56081U 23043AM  25076.31531187 -.00000109  00000+0 -32271-3 0  9990
2 56081  87.9141 350.2196 0001493  66.7279 293.4008 13.15547243 96367
ONEWEB-0561             
1 56710U 23068A   25076.53583998  .00000107  00000+0  23036-3 0  9992
2 56710  87.9321   5.3582 0002264  92.1032 268.0361 13.20774026 89224
ONEWEB-0668             
1 56711U 23068B   25076.63890322  .00000077  00000+0  16776-3 0  9995
2 56711  87.9075 319.7624 0001151  72.4482 287.6775 13.16593687 91703
ONEWEB-0676             
1 56712U 23068C   25076.61911386  .00000009  00000+0 -97962-5 0  9992
2 56712  87.9086 319.7921 0002071  92.3896 267.7472 13.16593675 91629
ONEWEB-0677             
1 56713U 23068D   25076.75206798  .00000105  00000+0  22635-3 0  9991
2 56713  87.9326   5.2875 0001769  88.0007 272.1329 13.20773038 90258
ONEWEB-0678             
1 56714U 23068E   25076.81600812  .00000206  00000+0  51418-3 0  9997
2 56714  87.9140 350.0901 0002106  75.2041 284.9322 13.15551355 89988
ONEWEB-0679             
1 56715U 23068F   25076.58821860  .00000115  00000+0  26742-3 0  9991
2 56715  87.9081 319.7934 0001351  99.9639 260.1644 13.16596866 91644
ONEWEB-0680             
1 56716U 23068G   25076.72363106  .00000105  00000+0  22178-3 0  9990
2 56716  87.9313 334.9933 0001071  76.5615 283.5638 13.21826404 91490
ONEWEB-0681             
1 56717U 23068H   25076.73387670  .00000137  00000+0  30062-3 0  9990
2 56717  87.9331 334.9984 0002190 107.0321 253.1053 13.21827588 91481
ONEWEB-0682             
1 56718U 23068J   25076.46187480  .00000032  00000+0  50959-4 0  9990
2 56718  87.9139 350.1937 0001259  80.4208 279.7064 13.15549780 89402
ONEWEB-0683             
1 56719U 23068K   25076.25508515  .00000062  00000+0  12975-3 0  9992
2 56719  87.9135 350.2059 0001474  76.8289 283.3006 13.15551345 89342
ONEWEB-0684             
1 56720U 23068L   25076.49118632  .00000071  00000+0  15381-3 0  9991
2 56720  87.9110 350.2004 0002957  55.4699 304.6711 13.15550949 89206
ONEWEB-0686             
1 56721U 23068M   25076.57793637  .00000114  00000+0  26569-3 0  9993
2 56721  87.9080 319.8322 0001542  70.9408 289.1889 13.16596777 91639
ONEWEB-0694             
1 56722U 23068N   25076.62069388  .00000013  00000+0  62498-6 0  9991
2 56722  87.9081 319.7422 0001266  82.0343 278.0932 13.16596638 91694
ONEWEB-0696             
1 56723U 23068P   25076.44840193  .00000156  00000+0  37938-3 0  9999
2 56723  87.9140 350.2197 0002105  75.1616 284.9747 13.15547563 89317
ONEWEB-0703             
1 56724U 23068Q   25076.45791378  .00000094  00000+0  21532-3 0  9995
2 56724  87.9122 350.2312 0002961  83.3521 276.7946 13.15550789 89205
ONEWEB-0721             
1 56725U 23068R   25076.45449288  .00000171  00000+0  37656-3 0  9996
2 56725  86.6771 231.0441 0001623 101.7418 258.3897 13.22427958 97574
ONEWEB-0015             
1 61594U 24188A   25076.91667824  .00000015  00000+0  00000+0 0  9995
2 61594  87.5931 112.3547 0007860  77.8676  26.2252 13.50817191 22688
ONEWEB-0687             
1 61595U 24188B   25076.60409155  .00003408  00000+0  40756-3 0  9998
2 61595  86.5706 106.7874 0006714  73.1648 287.0311 14.83872414 24965
ONEWEB-0688             
1 61596U 24188C   25076.60730975  .00003370  00000+0  40298-3 0  9995
2 61596  86.5716 106.8129 0006269  75.1098 285.0819 14.83874932 24965
ONEWEB-0689             
1 61597U 24188D   25076.91667824  .00000015  00000+0  00000+0 0  9998
2 61597  87.4495 112.5424 0005319  76.0699 174.9979 13.58320826 22717
ONEWEB-0690             
1 61598U 24188E   25076.50002315 -.00834512  00000+0 -69820+0 0  9996
2 61598  87.6282 112.6095 0009723  82.5864 271.7915 13.91488384  5570
ONEWEB-0691             
1 61599U 24188F   25076.83335648  .00000015  00000+0  00000+0 0  9997
2 61599  87.4754 112.5569 0007596  67.2378 200.7953 13.63558580 22875
ONEWEB-0692             
1 61600U 24188G   25076.91667824  .00000015  00000+0  00000+0 0  9993
2 61600  87.4604 112.5497 0004906  93.3778 248.8819 13.61327424 22826
ONEWEB-0693             
1 61601U 24188H   25076.60812272  .00003309  00000+0  39565-3 0  9990
2 61601  86.5631 106.6668 0005232  92.4097 267.7725 14.83875182 24965
ONEWEB-0695             
1 61602U 24188J   25076.91667824  .00000015  00000+0  00000+0 0  9995
2 61602  87.4371 112.5853 0005286  78.6382  98.9636 13.60640025 22841
ONEWEB-0697             
1 61603U 24188K   25076.91667824  .00000015  00000+0  00000+0 0  9996
2 61603  87.4389 112.5541 0003410 106.9226 260.5706 13.58339896 22869
ONEWEB-0698             
1 61604U 24188L   25076.91667824  .00000015  00000+0  00000+0 0  9997
2 61604  87.4383 112.5856 0006364  82.0082 267.6430 13.61073533 22643
ONEWEB-0699             
1 61605U 24188M   25076.59775370  .00000438  00000+0  12177-2 0  9998
2 61605  87.8834 127.2792 0002188  87.6109 272.5269 13.10374018 23510
ONEWEB-0700             
1 61606U 24188N   25076.82839298  .00000415  00000+0  11524-2 0  9995
2 61606  87.8749 127.2234 0001308  89.1048 271.0229 13.10372933 21724
ONEWEB-0701             
1 61607U 24188P   25076.61598317 -.00000593  00000+0 -17344-2 0  9992
2 61607  87.8836 127.2819 0001744  73.6384 286.4934 13.10371483 23517
ONEWEB-0702             
1 61608U 24188Q   25076.91667824  .00000015  00000+0  00000+0 0  9991
2 61608  87.4938 112.5518 0008027  83.1389 246.2948 13.65425350 22692
ONEWEB-0704             
1 61609U 24188R   25076.83331213  .00000184  00000+0  49075-3 0  9999
2 61609  87.8862 127.1441 0001243  72.7080 287.4183 13.10368996 21672
ONEWEB-0705             
1 61610U 24188S   25076.60933667 -.00000161  00000+0 -49743-3 0  9996
2 61610  87.8823 127.2820 0000862 119.1056 241.0158 13.10367648 15661
ONEWEB-0706             
1 61611U 24188T   25076.58652167 -.00000047  00000+0 -14277-3 0  9994
2 61611  87.9323 127.2801 0001730 134.1831 225.9446 13.23001946 23558
